{"type": "FeatureCollection", "features": [ {"type": "Feature", "properties": {"norad_id": 34790, "name": "COSMOS 2251 DEB", "group": "cosmos-2251-debris", "lat": 2.329244264516846, "lon": 47.06753620140415, "alt_km": 836.0691589332955, "timestamp": "2025-12-21T14:40:48.313986+00:00", "meta": {"OBJECT_NAME": "COSMOS 2251 DEB", "OBJECT_ID": "1993-036AAT", "EPOCH": "2025-12-20T03:10:44.601024", "MEAN_MOTION": 14.24656104, "ECCENTRICITY": 0.01005224, "INCLINATION": 74.0538, "RA_OF_ASC_NODE": 230.3962, "ARG_OF_PERICENTER": 290.5432, "MEAN_ANOMALY": 224.5062, "EPHEMERIS_TYPE": 0, "CLASSIFICATION_TYPE": "U", "NORAD_CAT_ID": 34790, "ELEMENT_SET_NO": 999, "REV_AT_EPOCH": 86678, "BSTAR": 0.00041671452, "MEAN_MOTION_DOT": 9.95e-06, "MEAN_MOTION_DDOT": 0}, "tle": {"line1": "1 34790U 93036AAT 25354.13246066  .00000995  00000+0  41671-3 0  9995", "line2": "2 34790  74.0538 230.3962 0100522 290.5432 224.5062 14.24656104866781"}}, "geometry": {"type": "Point", "coordinates": [47.06753620140415, 2.329244264516846]}}, {"type": "Feature", "properties": {"norad_id": 34792, "name": "COSMOS 2251 DEB", "group": "cosmos-2251-debris", "lat": 44.581784467778164, "lon": 169.27755747911823, "alt_km": 710.1709325601969, "timestamp": "2025-12-21T14:40:48.313996+00:00", "meta": {"OBJECT_NAME": "COSMOS 2251 DEB", "OBJECT_ID": "1993-036AAV", "EPOCH": "2025-12-20T12:20:32.087328", "MEAN_MOTION": 14.56013291, "ECCENTRICITY": 0.0012416, "INCLINATION": 74.0171, "RA_OF_ASC_NODE": 154.9529, "ARG_OF_PERICENTER": 249.388, "MEAN_ANOMALY": 167.642, "EPHEMERIS_TYPE": 0, "CLASSIFICATION_TYPE": "U", "NORAD_CAT_ID": 34792, "ELEMENT_SET_NO": 999, "REV_AT_EPOCH": 87763, "BSTAR": 0.00068570227, "MEAN_MOTION_DOT": 2.993e-05, "MEAN_MOTION_DDOT": 0}, "tle": {"line1": "1 34792U 93036AAV 25354.51426027  .00002993  00000+0  68570-3 0  9993", "line2": "2 34792  74.0171 154.9529 0012416 249.3880 167.6420 14.56013291877639"}}, "geometry": {"type": "Point", "coordinates": [169.27755747911823, 44.581784467778164]}}, {"type": "Feature", "properties": {"norad_id": 34793, "name": "COSMOS 2251 DEB", "group": "cosmos-2251-debris", "lat": -7.814788993678585, "lon": -128.2795022957337, "alt_km": 736.4134265540233, "timestamp": "2025-12-21T14:40:48.314006+00:00", "meta": {"OBJECT_NAME": "COSMOS 2251 DEB", "OBJECT_ID": "1993-036AAW", "EPOCH": "2025-12-20T20:56:39.901920", "MEAN_MOTION": 14.38656472, "ECCENTRICITY": 0.0050644, "INCLINATION": 74.0021, "RA_OF_ASC_NODE": 235.3419, "ARG_OF_PERICENTER": 27.3695, "MEAN_ANOMALY": 99.1443, "EPHEMERIS_TYPE": 0, "CLASSIFICATION_TYPE": "U", "NORAD_CAT_ID": 34793, "ELEMENT_SET_NO": 999, "REV_AT_EPOCH": 87447, "BSTAR": 0.00017055, "MEAN_MOTION_DOT": 5.04e-06, "MEAN_MOTION_DDOT": 0}, "tle": {"line1": "1 34793U 93036AAW 25354.87268405  .00000504  00000+0  17055-3 0  9995", "line2": "2 34793  74.0021 235.3419 0050644  27.3695  99.1443 14.38656472874476"}}, "geometry": {"type": "Point", "coordinates": [-128.2795022957337, -7.814788993678585]}}, {"type": "Feature", "properties": {"norad_id": 34796, "name": "COSMOS 2251 DEB", "group": "cosmos-2251-debris", "lat": 45.87812601017066, "lon": -143.1136062060453, "alt_km": 747.4575497611004, "timestamp": "2025-12-21T14:40:48.314016+00:00", "meta": {"OBJECT_NAME": "COSMOS 2251 DEB", "OBJECT_ID": "1993-036AAZ", "EPOCH": "2025-12-21T06:43:38.254368", "MEAN_MOTION": 14.48726221, "ECCENTRICITY": 0.01002802, "INCLINATION": 74.0288, "RA_OF_ASC_NODE": 200.3317, "ARG_OF_PERICENTER": 300.5709, "MEAN_ANOMALY": 179.2041, "EPHEMERIS_TYPE": 0, "CLASSIFICATION_TYPE": "U", "NORAD_CAT_ID": 34796, "ELEMENT_SET_NO": 999, "REV_AT_EPOCH": 88151, "BSTAR": 0.00042484546, "MEAN_MOTION_DOT": 1.677e-05, "MEAN_MOTION_DDOT": 0}, "tle": {"line1": "1 34796U 93036AAZ 25355.28030387  .00001677  00000+0  42485-3 0  9997", "line2": "2 34796  74.0288 200.3317 0100280 300.5709 179.2041 14.48726221881515"}}, "geometry": {"type": "Point", "coordinates": [-143.1136062060453, 45.87812601017066]}}, {"type": "Feature", "properties": {"norad_id": 34797, "name": "COSMOS 2251 DEB", "group": "cosmos-2251-debris", "lat": -14.437759575473047, "lon": 79.21367895300268, "alt_km": 796.9341741215449, "timestamp": "2025-12-21T14:40:48.314026+00:00", "meta": {"OBJECT_NAME": "COSMOS 2251 DEB", "OBJECT_ID": "1993-036ABA", "EPOCH": "2025-12-18T13:32:08.695392", "MEAN_MOTION": 14.42903821, "ECCENTRICITY": 0.00713736, "INCLINATION": 73.9783, "RA_OF_ASC_NODE": 89.1324, "ARG_OF_PERICENTER": 201.7042, "MEAN_ANOMALY": 158.1087, "EPHEMERIS_TYPE": 0, "CLASSIFICATION_TYPE": "U", "NORAD_CAT_ID": 34797, "ELEMENT_SET_NO": 999, "REV_AT_EPOCH": 87499, "BSTAR": 0.0016985088, "MEAN_MOTION_DOT": 5.83e-05, "MEAN_MOTION_DDOT": 0}, "tle": {"line1": "1 34797U 93036ABA 25352.56398953  .00005830  00000+0  16985-2 0  9992", "line2": "2 34797  73.9783  89.1324 0071373 201.7042 158.1087 14.42903821874994"}}, "geometry": {"type": "Point", "coordinates": [79.21367895300268, -14.437759575473047]}}, {"type": "Feature", "properties": {"norad_id": 34814, "name": "COSMOS 2251 DEB", "group": "cosmos-2251-debris", "lat": 40.918982396659956, "lon": 114.48158720802867, "alt_km": 744.8786134953789, "timestamp": "2025-12-21T14:40:48.314036+00:00", "meta": {"OBJECT_NAME": "COSMOS 2251 DEB", "OBJECT_ID": "1993-036ABD", "EPOCH": "2025-12-20T15:30:26.921088", "MEAN_MOTION": 14.36924529, "ECCENTRICITY": 0.0055669, "INCLINATION": 73.8958, "RA_OF_ASC_NODE": 310.7738, "ARG_OF_PERICENTER": 198.7366, "MEAN_ANOMALY": 346.1434, "EPHEMERIS_TYPE": 0, "CLASSIFICATION_TYPE": "U", "NORAD_CAT_ID": 34814, "ELEMENT_SET_NO": 999, "REV_AT_EPOCH": 87446, "BSTAR": 0.00047694, "MEAN_MOTION_DOT": 1.41e-05, "MEAN_MOTION_DDOT": 0}, "tle": {"line1": "1 34814U 93036ABD 25354.64614492  .00001410  00000+0  47694-3 0  9994", "line2": "2 34814  73.8958 310.7738 0055669 198.7366 346.1434 14.36924529874461"}}, "geometry": {"type": "Point", "coordinates": [114.48158720802867, 40.918982396659956]}}, {"type": "Feature", "properties": {"norad_id": 34815, "name": "COSMOS 2251 DEB", "group": "cosmos-2251-debris", "lat": 4.932890551069159, "lon": 42.964856264332305, "alt_km": 654.7865772060468, "timestamp": "2025-12-21T14:40:48.314046+00:00", "meta": {"OBJECT_NAME": "COSMOS 2251 DEB", "OBJECT_ID": "1993-036ABE", "EPOCH": "2025-12-21T00:53:39.479136", "MEAN_MOTION": 14.78398496, "ECCENTRICITY": 0.00588192, "INCLINATION": 74.0441, "RA_OF_ASC_NODE": 225.5074, "ARG_OF_PERICENTER": 292.852, "MEAN_ANOMALY": 66.6451, "EPHEMERIS_TYPE": 0, "CLASSIFICATION_TYPE": "U", "NORAD_CAT_ID": 34815, "ELEMENT_SET_NO": 999, "REV_AT_EPOCH": 88750, "BSTAR": 0.00047406844, "MEAN_MOTION_DOT": 3.52e-05, "MEAN_MOTION_DDOT": 0}, "tle": {"line1": "1 34815U 93036ABE 25355.03726249  .00003520  00000+0  47407-3 0  9999", "line2": "2 34815  74.0441 225.5074 0058819 292.8520  66.6451 14.78398496887502"}}, "geometry": {"type": "Point", "coordinates": [42.964856264332305, 4.932890551069159]}}, {"type": "Feature", "properties": {"norad_id": 34816, "name": "COSMOS 2251 DEB", "group": "cosmos-2251-debris", "lat": -71.54805421622163, "lon": 8.68099742544752, "alt_km": 941.860106698975, "timestamp": "2025-12-21T14:40:48.314056+00:00", "meta": {"OBJECT_NAME": "COSMOS 2251 DEB", "OBJECT_ID": "1993-036ABF", "EPOCH": "2025-12-19T19:45:52.299072", "MEAN_MOTION": 13.58341455, "ECCENTRICITY": 0.03732066, "INCLINATION": 73.8867, "RA_OF_ASC_NODE": 131.5634, "ARG_OF_PERICENTER": 194.8145, "MEAN_ANOMALY": 321.2377, "EPHEMERIS_TYPE": 0, "CLASSIFICATION_TYPE": "U", "NORAD_CAT_ID": 34816, "ELEMENT_SET_NO": 999, "REV_AT_EPOCH": 82879, "BSTAR": 0.00094697694, "MEAN_MOTION_DOT": 1.062e-05, "MEAN_MOTION_DDOT": 0}, "tle": {"line1": "1 34816U 93036ABF 25353.82352198  .00001062  00000+0  94698-3 0  9996", "line2": "2 34816  73.8867 131.5634 0373206 194.8145 321.2377 13.58341455828797"}}, "geometry": {"type": "Point", "coordinates": [8.68099742544752, -71.54805421622163]}}, {"type": "Feature", "properties": {"norad_id": 34818, "name": "COSMOS 2251 DEB", "group": "cosmos-2251-debris", "lat": -29.41646642224372, "lon": 109.9146440179347, "alt_km": 788.207091049575, "timestamp": "2025-12-21T14:40:48.314066+00:00", "meta": {"OBJECT_NAME": "COSMOS 2251 DEB", "OBJECT_ID": "1993-036ABH", "EPOCH": "2025-12-21T06:03:22.029984", "MEAN_MOTION": 14.36976578, "ECCENTRICITY": 0.00245854, "INCLINATION": 74.0362, "RA_OF_ASC_NODE": 281.2869, "ARG_OF_PERICENTER": 355.1217, "MEAN_ANOMALY": 157.5455, "EPHEMERIS_TYPE": 0, "CLASSIFICATION_TYPE": "U", "NORAD_CAT_ID": 34818, "ELEMENT_SET_NO": 999, "REV_AT_EPOCH": 87492, "BSTAR": 0.0001607405, "MEAN_MOTION_DOT": 4.52e-06, "MEAN_MOTION_DDOT": 0}, "tle": {"line1": "1 34818U 93036ABH 25355.25233831  .00000452  00000+0  16074-3 0  9993", "line2": "2 34818  74.0362 281.2869 0024585 355.1217 157.5455 14.36976578874920"}}, "geometry": {"type": "Point", "coordinates": [109.9146440179347, -29.41646642224372]}}, {"type": "Feature", "properties": {"norad_id": 34819, "name": "COSMOS 2251 DEB", "group": "cosmos-2251-debris", "lat": -73.85300959246091, "lon": 43.75872738388032, "alt_km": 680.2073607734701, "timestamp": "2025-12-21T14:40:48.314076+00:00", "meta": {"OBJECT_NAME": "COSMOS 2251 DEB", "OBJECT_ID": "1993-036ABJ", "EPOCH": "2025-12-20T09:50:49.162272", "MEAN_MOTION": 14.64072467, "ECCENTRICITY": 0.00155371, "INCLINATION": 74.018, "RA_OF_ASC_NODE": 127.9117, "ARG_OF_PERICENTER": 222.8872, "MEAN_ANOMALY": 199.7592, "EPHEMERIS_TYPE": 0, "CLASSIFICATION_TYPE": "U", "NORAD_CAT_ID": 34819, "ELEMENT_SET_NO": 999, "REV_AT_EPOCH": 88341, "BSTAR": 0.001010903, "MEAN_MOTION_DOT": 5.289e-05, "MEAN_MOTION_DDOT": 0}, "tle": {"line1": "1 34819U 93036ABJ 25354.41029123  .00005289  00000+0  10109-2 0  9993", "line2": "2 34819  74.0180 127.9117 0015537 222.8872 199.7592 14.64072467883414"}}, "geometry": {"type": "Point", "coordinates": [43.75872738388032, -73.85300959246091]}}]}